#cP2023  5 28  0  0  0.00000000      96 ORBIT IGS20 HLM  IGS
## 2264      0.00000000   900.00000000 60092 0.0000000000000
+   32   G01G02G03G04G05G06G07G08G09G10G11G12G13G14G15G16G17
+        G18G19G20G21G22G23G24G25G26G27G28G29G30G31G32  0  0
+          0  0  0  0  0  0  0  0  0  0  0  0  0  0  0  0  0
+          0  0  0  0  0  0  0  0  0  0  0  0  0  0  0  0  0
+          0  0  0  0  0  0  0  0  0  0  0  0  0  0  0  0  0
++         2  2  2  2  2  2  2  2  2  2  2  2  2  3  2  2  2
++         2  2  2  2  2  2  2  2  2  2  2  2  2  2  2  0  0
++         0  0  0  0  0  0  0  0  0  0  0  0  0  0  0  0  0
++         0  0  0  0  0  0  0  0  0  0  0  0  0  0  0  0  0
++         0  0  0  0  0  0  0  0  0  0  0  0  0  0  0  0  0
%c G  cc GPS ccc cccc cccc cccc cccc ccccc ccccc ccccc ccccc
%c cc cc ccc ccc cccc cccc cccc cccc ccccc ccccc ccccc ccccc
%f  1.2500000  1.025000000  0.00000000000  0.000000000000000
%f  0.0000000  0.000000000  0.00000000000  0.000000000000000
%i    0    0    0    0      0      0      0      0         0
%i    0    0    0    0      0      0      0      0         0
/* RAPID ORBIT COMBINATION FROM WEIGHTED AVERAGE OF:        
/* cod emr esa gfz grg jpl ngs sio usn whu                  
/* REFERENCED TO IGS TIME (IGST) AND TO WEIGHTED MEAN POLE: 
/* PCV:IGS20_2233 OL/AL:FES2014b NONE     Y  ORB:CMB CLK:CMB
*  2023  5 28 19 30  0.00000000
PG01  19140.761025  14252.560084 -12363.695511    182.051158  6  7  1  95       
PG02   3505.507182  15394.556008 -20935.764784   -591.469730  6  8  5 107       
PG03  12732.269577  20635.072104  10849.423868   -289.201437  6  5  3  88       
PG04  11759.438206   9769.340605  21737.659603     53.405850  4  4  7  55       
PG05  -4543.344758 -25685.543960   4484.092697   -128.958925  5  7  6  88       
PG06  18117.003334  -7142.102277  18166.718184    587.219272  3  4  6  79       
PG07  25970.050391   6524.838600  -1185.486168    166.770199  5  6  4  89       
PG08   1195.308558  18175.343126 -19264.543261   -124.684068  6  4  3  95       
PG09  18870.085782   -429.288680  18630.622937   -148.597170  5  4  5  70       
PG10 -12696.761178   8597.167761 -21467.928012    -38.838803  5  3  2 105       
PG11   3131.736160 -14865.011496  21796.969504   -213.945541  3  6  7 105       
PG12  -9947.866226 -23167.042650   8204.031974   -381.687333  5  8  7 115       
PG13   7913.789834 -19577.955143 -16157.812816    526.358637  4  7  6  73       
PG14  14620.754874  -5278.466208 -21515.263219     72.237774  6  7  9 122       
PG15  -4245.569964 -18045.580068 -19391.222157     43.726716  3  5  5 116       
PG16  -1004.570582  25199.336008   7247.257639   -496.892440  7  9  6  76       
PG17  22098.092880 -13031.556150  -6661.028961    716.453619  4  7  4 101       
PG18 -25810.156956  -4170.331456  -5134.411141   -285.177351  6  5  6  96       
PG19  20404.304524 -16707.754054    795.399928    323.065701  3  8  1 101       
PG20    372.234640 -23008.107838  13458.644911    431.064269  4  7  5  63       
PG21  12682.972189  15009.202905 -17708.866328    153.528123  6  8  4 104       
PG22 -17943.757104  19000.308768   4674.900203    488.921651  8  8  5  57       
PG23 -15993.007198  -4937.954313 -20654.628393     28.086353  5  4  6  93       
PG24 -16117.150383 -14840.288792 -15656.004245   -205.262544  6  6  3 110       
PG25 -15707.396932 -13478.926502  16479.587449    446.020753  8  5  7 107       
PG26  -7500.328606  18368.578087  17378.480446    240.122581  5  3  6  67       
PG27  -9658.567314  21367.029671 -12316.579894     27.888222  4  3  8  91       
PG28 -19507.230430   7104.609263  16541.616481     80.944558  3  4  5  42       
PG29 -17110.873974  -3333.150165  20011.574970   -601.019377  7  7  4  74       
PG30  23934.549120  -1872.740347 -11529.588112   -514.511558  2  6  3 102       
PG31  -9100.029025  12935.784430  21222.894204   -217.034013  4  5  4  67       
PG32 -20709.106979  15642.166023  -4954.126348   -487.452046  4  6  4  91       
*  2023  5 28 19 45  0.00000000
PG01  17683.754548  13974.224366 -14667.203785    182.048837  6  7     92       
PG02   1010.128418  15024.621118 -21433.643041   -591.465961  6  8  5 107       
PG03  12867.849706  21745.463858   8250.966424   -289.190483  6  5  4  90       
PG04   9974.595513  11500.064658  21773.242117     53.415007  4  5  7  68       
PG05  -4091.138308 -25106.409714   7251.287941   -128.960350  5  6  6  91       
PG06  19984.413840  -6555.562684  16339.856133    587.218298  3  3  5  78       
PG07  25933.789168   6771.132088   1620.868034    166.761360  5  6  4  75       
PG08   -345.222926  19637.950597 -17765.854351   -124.686703  6  4  4  97       
PG09  17456.886691   1286.647911  19915.768623   -148.589436  5  4  5  73       
PG10 -13438.273187   6192.771620 -21865.362166    -38.840676  5  3    107       
PG11   5516.368708 -14143.819725  21800.366052   -213.958452  4  6  6 106       
PG12  -9895.985038 -24011.230424   5488.511180   -381.691535  5  8  6 122       
PG13   9363.204941 -20496.546779 -14069.036906    526.363446  3  7  6  77       
PG14  15241.265594  -2886.663942 -21551.989170     72.249094  6  7 10 121       
PG15  -2895.772044 -19626.651416 -17998.317528     43.730027  2  6  5 107       
PG16  -1458.608369  24237.509669   9902.131325   -496.889055  8  9  6  57       
PG17  21525.297308 -12229.616486  -9336.952461    716.454879  4  7  4 103       
PG18 -26166.225893  -4475.898604  -2303.518194   -285.191336  7  5  6  92       
PG19  20521.955464 -16488.490989  -2101.856903    323.070170  3  8  3 108       
PG20   1271.281900 -21609.301288  15547.401663    431.062308  4  7  5  56       
PG21  10508.261575  14768.868843 -19150.665366    153.527914  6  8  5 100       
PG22 -18357.640627  19021.469454   1838.611196    488.927327  8  9  5  84       
PG23 -16615.347232  -7144.130385 -19499.164633     28.089356  6  4  7 103       
PG24 -14285.025042 -14737.453875 -17432.925315   -205.274735  5  5  3 100       
PG25 -16056.685228 -15271.935059  14522.355731    446.023144  9  4  6 107       
PG26  -8404.033447  16448.647416  18848.302161    240.122024  5  3  6  75       
PG27 -10681.663529  22111.511431  -9822.457610     27.881089  4  4  8  97       
PG28 -21214.641825   6562.815573  14545.811432     80.946523  3  5  6  84       
PG29 -15403.322906  -4953.625356  21026.488379   -601.020548  7  7  4  80       
PG30  25020.925667  -1314.501332  -9087.599774   -514.509478  2  5  3 111       
PG31 -11421.680163  12252.746144  20538.969607   -217.034846  4  5  4  74       
PG32 -20387.882337  14915.266066  -7693.568617   -487.460179  4  6  4  92       
*  2023  5 28 20  0  0.00000000
PG01  15974.988805  13732.049167 -16727.478404    182.046500  7  7  2  93       
PG02  -1539.334225  14781.094181 -21547.115407   -591.462239  6  7  5 104       
PG03  12964.083230  22560.317227   5510.810889   -289.179541  7  6  4  88       
PG04   8293.680325  13310.076654  21434.480526     53.423951  4  5  7  59       
PG05  -3491.894731 -24266.377407   9892.117054   -128.962143  5  5  6  92       
PG06  21663.589008  -6118.295709  14234.111249    587.217364  3  2  5  85       
PG07  25605.012632   6957.645035   4400.262065    166.752792  5  6  4  53       
PG08  -1693.359885  21033.605904 -15958.816310   -124.688738  5  3  4  96       
PG09  16053.118542   3170.974104  20856.457074   -148.581693  5  4  5  76       
PG10 -14316.351180   3812.821596 -21879.761995    -38.842306  4  3    105       
PG11   7915.894159 -13554.395193  21428.884663   -213.971380  5  6  6 108       
PG12  -9806.942204 -24553.468426   2678.326889   -381.695813  6  8  6 117       
PG13  10576.794351 -21325.369220 -11738.294570    526.368240  3  7  6  77       
PG14  15975.595125   -546.547544 -21217.620408     72.260463  6  7 10 118       
PG15  -1712.476389 -21128.953608 -16303.483790     43.732983  2  6  5 124       
PG16  -2036.434779  23013.831626  12379.925787   -496.886022  8  8  5  84       
PG17  20791.525960 -11181.290086 -11850.293722    716.456409  4  7  4 108       
PG18 -26222.909941  -4697.203117    566.642518   -285.205272  7  6  7  96       
PG19  20411.285867 -16051.566545  -4962.338698    323.074916  3  8  4 116       
PG20   2347.560133 -20064.759499  17371.327676    431.060215  4  7  4  52       
PG21   8168.824393  14628.711348 -20255.663153    153.527237  6  8  5 114       
PG22 -18542.875390  18833.792798  -1029.496946    488.932840  8  9  4  86       
PG23 -17302.352512  -9172.402410 -18009.497032     28.092351  6  5  7 114       
PG24 -12269.440015 -14707.249253 -18921.970224   -205.286891  5  5  4 112       
PG25 -16415.837031 -16819.009678  12313.311964    446.025506  9  4  6  92       
PG26  -9454.568551  14439.016178  19987.504204    240.121417  5  4  6  70       
PG27 -11477.664307  22684.796048  -7157.161038     27.873964  5  4  8 111       
PG28 -22710.186542   6146.507255  12299.290667     80.948520  3  5  6  72       
PG29 -13719.244578  -6732.696018  21678.422500   -601.021306  7  6  5  77       
PG30  25854.440067   -865.668689  -6490.805781   -514.507403  2  5  3 103       
PG31 -13674.989687  11710.638728  19499.351399   -217.035495  4  5  4  46       
PG32 -19908.872272  13938.430471 -10298.270261   -487.468161  4  6  4  95       
EOF
